{"type":"Feature","properties":{"mode":"walking","provider":"routing.openstreetmap.de","sourceData":"OpenStreetMap","distance_m":3016,"duration_s":2415},"geometry":{"coordinates":[[11.578029,48.14358],[11.578153,48.143845],[11.578368,48.144275],[11.578494,48.144248],[11.578577,48.14423],[11.57903,48.144132],[11.579049,48.144128],[11.579588,48.14401],[11.580428,48.143829],[11.580396,48.143758],[11.580353,48.143668],[11.580334,48.143631],[11.580275,48.143507],[11.580218,48.143387],[11.580125,48.143192],[11.580053,48.143041],[11.580096,48.143026],[11.58013,48.143003],[11.580151,48.142973],[11.580157,48.142943],[11.580149,48.142913],[11.580533,48.142833],[11.580487,48.142734],[11.580447,48.142648],[11.580415,48.142652],[11.580383,48.142648],[11.580355,48.142637],[11.580338,48.142625],[11.580326,48.142611],[11.57989,48.1427],[11.579454,48.142789],[11.57944,48.14277],[11.579418,48.142756],[11.57939,48.142747],[11.579359,48.142744],[11.579329,48.142747],[11.579262,48.142611],[11.579205,48.142492],[11.57915,48.142378],[11.578709,48.142468],[11.578562,48.142499],[11.578207,48.142571],[11.578191,48.142538],[11.578158,48.142467],[11.57811,48.142477],[11.578067,48.142486],[11.578065,48.142483],[11.578061,48.142473],[11.57809,48.142466],[11.577989,48.142488],[11.577981,48.142472],[11.577986,48.142465],[11.577943,48.14237],[11.577939,48.142366],[11.577926,48.142356],[11.577922,48.142344],[11.577787,48.142355],[11.577692,48.141844],[11.577668,48.141725],[11.577657,48.141673],[11.577608,48.141453],[11.577565,48.141278],[11.577563,48.14127],[11.57756,48.141259],[11.577497,48.141032],[11.577457,48.140881],[11.577445,48.140797],[11.577403,48.14049],[11.577409,48.140448],[11.577497,48.140433],[11.577688,48.140395],[11.577719,48.140389],[11.578265,48.140281],[11.578258,48.140263],[11.578201,48.140135],[11.578196,48.140118],[11.57818,48.140084],[11.578112,48.13992],[11.578152,48.139907],[11.578177,48.139888],[11.578183,48.139881],[11.578193,48.139866],[11.578198,48.139841],[11.578193,48.139825],[11.57819,48.139817],[11.578184,48.139809],[11.578172,48.139795],[11.578145,48.139778],[11.578135,48.139775],[11.578111,48.139767],[11.578074,48.139764],[11.578048,48.139768],[11.578037,48.139769],[11.578004,48.139781],[11.577974,48.139806],[11.57774,48.139722],[11.57764,48.139686],[11.577589,48.139655],[11.577481,48.139593],[11.577478,48.139579],[11.577476,48.139566],[11.577454,48.139489],[11.577298,48.138969],[11.577291,48.138941],[11.577269,48.13887],[11.57718,48.138616],[11.577151,48.138538],[11.577032,48.138285],[11.576971,48.138172],[11.576943,48.138022],[11.576939,48.138005],[11.576926,48.137987],[11.576763,48.137757],[11.576413,48.137263],[11.576391,48.137235],[11.576342,48.137166],[11.576323,48.137142],[11.576298,48.137118],[11.576235,48.137058],[11.57612,48.137065],[11.575993,48.137064],[11.57593,48.13706],[11.575892,48.137053],[11.575854,48.137045],[11.575812,48.13702],[11.575793,48.137029],[11.575742,48.137074],[11.575566,48.137111],[11.575742,48.137074],[11.575793,48.137029],[11.575812,48.13702],[11.575759,48.136983],[11.575718,48.136938],[11.575629,48.136833],[11.575571,48.136771],[11.575536,48.136742],[11.575394,48.136617],[11.575234,48.1365],[11.575289,48.136468],[11.575505,48.136393],[11.575636,48.136349],[11.575742,48.136312],[11.576245,48.136205],[11.576374,48.135982],[11.576388,48.135961],[11.576408,48.135931],[11.576207,48.135853],[11.576239,48.135818],[11.576457,48.135584],[11.576325,48.135441],[11.575987,48.135074],[11.575881,48.134978],[11.575837,48.134932],[11.575755,48.13485],[11.57565,48.134727],[11.575721,48.1347],[11.575822,48.13465],[11.575945,48.134589],[11.575998,48.134563],[11.576105,48.13452],[11.576272,48.134499],[11.576269,48.134489],[11.576263,48.134453],[11.576272,48.134392],[11.576323,48.134388],[11.576349,48.134356],[11.57639,48.134353],[11.576465,48.13435],[11.576448,48.134186],[11.576492,48.134183],[11.576391,48.133455],[11.576418,48.133435],[11.576395,48.133287],[11.576373,48.133283],[11.576392,48.133246],[11.576399,48.133232],[11.576408,48.133216],[11.576424,48.133183],[11.576376,48.133126],[11.576331,48.133076],[11.576283,48.133039],[11.576154,48.132045],[11.576226,48.132029],[11.576301,48.132004],[11.576369,48.131972],[11.576653,48.132151],[11.5773,48.132558],[11.577441,48.13265],[11.577502,48.132625],[11.577567,48.132599],[11.577625,48.132638],[11.577668,48.13262],[11.578186,48.13243],[11.579722,48.131888],[11.57975,48.131922],[11.57982,48.131897],[11.580078,48.132139],[11.580257,48.132051],[11.580594,48.131882],[11.580782,48.131787],[11.580828,48.131764],[11.580768,48.131694],[11.581141,48.131504],[11.581548,48.131296],[11.582182,48.130995],[11.582293,48.131034],[11.582394,48.130967],[11.582485,48.130887],[11.582602,48.130788],[11.582996,48.130441],[11.583003,48.130433],[11.583042,48.130385],[11.583092,48.130339],[11.583149,48.130368],[11.5836,48.13059],[11.583621,48.130569],[11.583754,48.13046],[11.5838,48.130415],[11.583888,48.130337],[11.584048,48.130207],[11.584157,48.130122],[11.584152,48.129972],[11.584033,48.130037],[11.583799,48.130074],[11.583417,48.130082],[11.583417,48.130082]],"type":"LineString"}}
