{"type":"Feature","properties":{"source":"routing.openstreetmap.de / FOSSGIS","profile":"foot","generated":"2026-09-20","distanceMeters":2497,"durationSeconds":2002,"runtimeRouting":false},"geometry":{"coordinates":[[11.577522,48.142372],[11.577787,48.142355],[11.577692,48.141844],[11.577668,48.141725],[11.577657,48.141673],[11.577608,48.141453],[11.577565,48.141278],[11.577563,48.14127],[11.57756,48.141259],[11.577497,48.141032],[11.577457,48.140881],[11.577445,48.140797],[11.577403,48.14049],[11.577409,48.140448],[11.577473,48.14013],[11.577488,48.140054],[11.577498,48.139967],[11.577501,48.139929],[11.577559,48.139929],[11.577614,48.139929],[11.577706,48.139912],[11.577782,48.139898],[11.577873,48.139882],[11.577965,48.139866],[11.577973,48.139881],[11.577983,48.13989],[11.577973,48.139881],[11.577965,48.139866],[11.57796,48.139855],[11.577961,48.139827],[11.577974,48.139806],[11.57774,48.139722],[11.57764,48.139686],[11.577589,48.139655],[11.577481,48.139593],[11.577478,48.139579],[11.577476,48.139566],[11.577454,48.139489],[11.577298,48.138969],[11.577291,48.138941],[11.577269,48.13887],[11.57718,48.138616],[11.577151,48.138538],[11.577032,48.138285],[11.576971,48.138172],[11.576943,48.138022],[11.576939,48.138005],[11.576926,48.137987],[11.576763,48.137757],[11.576413,48.137263],[11.576391,48.137235],[11.576015,48.137317],[11.575554,48.137418],[11.575513,48.137427],[11.575554,48.137418],[11.575487,48.13729],[11.575411,48.137143],[11.575503,48.137124],[11.575742,48.137074],[11.575793,48.137029],[11.575812,48.13702],[11.575759,48.136983],[11.575718,48.136938],[11.575629,48.136833],[11.575571,48.136771],[11.575536,48.136742],[11.575394,48.136617],[11.575234,48.1365],[11.575289,48.136468],[11.575505,48.136393],[11.575636,48.136349],[11.575742,48.136312],[11.576245,48.136205],[11.576374,48.135982],[11.576388,48.135961],[11.576408,48.135931],[11.576207,48.135853],[11.576239,48.135818],[11.576457,48.135584],[11.576325,48.135441],[11.575987,48.135074],[11.575881,48.134978],[11.575837,48.134932],[11.575755,48.13485],[11.57565,48.134727],[11.575721,48.1347],[11.575822,48.13465],[11.575945,48.134589],[11.575998,48.134563],[11.576105,48.13452],[11.576272,48.134499],[11.576269,48.134489],[11.576263,48.134453],[11.576272,48.134392],[11.576323,48.134388],[11.576349,48.134356],[11.57639,48.134353],[11.576465,48.13435],[11.576448,48.134186],[11.576492,48.134183],[11.576391,48.133455],[11.576418,48.133435],[11.576395,48.133287],[11.576373,48.133283],[11.576392,48.133246],[11.576399,48.133232],[11.576408,48.133216],[11.576424,48.133183],[11.576376,48.133126],[11.576331,48.133076],[11.576283,48.133039],[11.576154,48.132045],[11.576226,48.132029],[11.576301,48.132004],[11.576369,48.131972],[11.576408,48.131948],[11.576291,48.131876],[11.576244,48.131845],[11.576166,48.131792],[11.576056,48.131721],[11.576062,48.131715],[11.576066,48.131708],[11.576065,48.1317],[11.576061,48.131693],[11.576054,48.131687],[11.576045,48.131682],[11.576034,48.13168],[11.57603,48.13168],[11.576034,48.13168],[11.576045,48.131682],[11.576054,48.131687],[11.576156,48.131613],[11.576224,48.131557],[11.576273,48.131516],[11.576369,48.131433],[11.576435,48.131477],[11.576866,48.131186],[11.577742,48.130552],[11.577959,48.130404],[11.578002,48.130374],[11.578089,48.130391],[11.578149,48.130356],[11.578211,48.130319],[11.578205,48.130227],[11.578357,48.130112],[11.578455,48.130036],[11.578559,48.130061],[11.578631,48.130057],[11.578705,48.130054],[11.578792,48.129998],[11.578875,48.12996],[11.578984,48.12995],[11.57912,48.129967],[11.579258,48.12995],[11.57935,48.129926],[11.579461,48.129946],[11.579607,48.129876],[11.579659,48.129829],[11.579705,48.12975],[11.579727,48.129713],[11.579765,48.129678],[11.581372,48.130507],[11.581863,48.130786],[11.582182,48.130995],[11.582293,48.131034],[11.582394,48.130967],[11.582485,48.130887],[11.582602,48.130788],[11.582996,48.130441],[11.583003,48.130433],[11.583042,48.130385],[11.583092,48.130339],[11.583149,48.130368],[11.5836,48.13059],[11.583621,48.130569],[11.583754,48.13046],[11.5838,48.130415],[11.583888,48.130337],[11.584048,48.130207],[11.584157,48.130122],[11.584152,48.129972],[11.584033,48.130037],[11.583799,48.130074],[11.583417,48.130082],[11.583356,48.130109],[11.583285,48.130166]],"type":"LineString"}}
